,Key,Postal_Code,City,Country,Region,Lat,Lon
0,01009-GT,01009,Ciudad de Guatemala,GT,Americas,14.6328,-90.5199
1,014 01-SK,014 01,Bytča,SK,Europe,49.1874,18.4862
2,014 01-SK,014 01,Bytča,SK,Europe,49.2414,18.5165
3,014 01-SK,014 01,Bytča,SK,Europe,49.2109,18.5241
4,014 01-SK,014 01,Bytča,SK,Europe,49.2138,18.5373
5,014 01-SK,014 01,Bytča,SK,Europe,49.2167,18.5667
6,014 01-SK,014 01,Bytča,SK,Europe,49.2048,18.5655
7,014 01-SK,014 01,Bytča,SK,Europe,49.1912,18.5045
8,014 01-SK,014 01,Bytča,SK,Europe,49.224,18.5588
9,014 01-SK,014 01,Bytča,SK,Europe,49.2341,18.5759
10,01740-FI,01740,Vantaa,FI,Europe,60.2958,24.893
11,02-871-PL,02-871,Warszawa,PL,Europe,52.111,21.0035
12,02021-US,02021,Canton,US,Americas,,
13,1101-SV,1101,SAN SALVADOR,SV,Americas,,
14,21104-HN,21104,SAN PEDRO SULA,HN,Americas,,
15,542 24-CZ,542 24,Svoboda nad Úpou,CZ,Europe,50.6064,15.8256
16,901 01-SK,901 01,Malacky,SK,Europe,48.436,17.0219
17,901 01-SK,901 01,Malacky,SK,Europe,48.4273,17.009
18,901 01-SK,901 01,Malacky,SK,Europe,48.4185,16.9961
19,23210-FI,23210,VEHMAA,FI,Europe,60.6674,21.6572
20,28100-FI,28100,Pori,FI,Europe,61.513,21.7643
21,40320-FI,40320,Jyväskylä,FI,Europe,62.2663,25.7891
22,50170-FI,50170,MIKKELI,FI,Europe,61.7054,27.3032
23,53100-FI,53100,LAPPEENRANTA,FI,Europe,61.0564,28.1938
24,53500-FI,53500,LAPPEENRANTA,FI,Europe,61.0503,28.2375
25,60100-FI,60100,SEINÄJOKI,FI,Europe,62.7823,22.8565
26,60120-FI,60120,SEINÄJOKI,FI,Europe,62.797,22.8585
27,61850-FI,61850,KAUHAJOKI AS,FI,Europe,62.454,22.2534
28,64200-FI,64200,NÄRPIÖ,FI,Europe,62.4735,21.355
29,65100-FI,65100,VAASA,FI,Europe,63.0941,21.6236
30,65380-FI,65380,VAASA,FI,Europe,63.0713,21.7319
31,68600-FI,68600,PIETARSAARI,FI,Europe,63.6747,22.7193
32,70460-FI,70460,KUOPIO,FI,Europe,62.9154,27.7041
33,70700-FI,70700,KUOPIO,FI,Europe,62.8776,27.6231
34,70800-FI,70800,KUOPIO,FI,Europe,62.8454,27.54
35,79100-FI,79100,LEPPÄVIRTA,FI,Europe,62.4909,27.8569
36,80100-FI,80100,JOENSUU,FI,Europe,62.6143,29.7768
37,80140-FI,80140,JOENSUU,FI,Europe,62.6259,29.6873
38,80330-FI,80330,REIJOLA,FI,Europe,62.5387,29.8333
39,86300-FI,86300,OULAINEN,FI,Europe,64.269,24.8232
40,87400-FI,87400,KAJAANI,FI,Europe,64.2152,27.7684
41,88900-FI,88900,KUHMO,FI,Europe,64.1308,29.5444
42,90400-FI,90400,OULU,FI,Europe,64.9943,25.457
43,90620-FI,90620,OULU,FI,Europe,65.045,25.5521
44,94600-FI,94600,KEMI,FI,Europe,65.7517,24.5851
45,95420-FI,95420,TORNIO,FI,Europe,65.8384,24.1862
46,96100-FI,96100,ROVANIEMI,FI,Europe,66.5317,25.6993
47,100048-CN,100048,Pekin,CN,Asia,,
48,141733-RU,141733,Lobnya,RU,Europe,56.0097,37.4819
49,15-197-PL,15-197,Białystok,PL,Europe,53.1487,23.2224
50,163 53-SE,163 53,Spånga,SE,Europe,59.3833,17.9167
51,22310-RS,22310,Simanovci,RS,Europe,44.8739,20.0918
52,26-332-PL,26-332,Sławno,PL,Europe,51.374,20.1925
53,26-332-PL,26-332,Sławno,PL,Europe,51.4428,20.1273
54,26-332-PL,26-332,Sławno,PL,Europe,51.3673,20.1377
55,26-332-PL,26-332,Sławno,PL,Europe,51.3485,20.147
56,26-332-PL,26-332,Sławno,PL,Europe,51.3512,20.109
57,26-332-PL,26-332,Sławno,PL,Europe,51.4198,20.1479
58,26-332-PL,26-332,Sławno,PL,Europe,51.455,20.1722
59,26-332-PL,26-332,Sławno,PL,Europe,51.4471,20.074
60,26-332-PL,26-332,Sławno,PL,Europe,51.3489,20.1747
61,26-332-PL,26-332,Sławno,PL,Europe,51.4321,20.1864
62,26-332-PL,26-332,Sławno,PL,Europe,51.396,20.1505
63,26-332-PL,26-332,Sławno,PL,Europe,51.4367,20.1079
64,26-332-PL,26-332,Sławno,PL,Europe,51.3915,20.2
65,26-332-PL,26-332,Sławno,PL,Europe,51.4328,20.1987
66,26-332-PL,26-332,Sławno,PL,Europe,51.4475,20.0973
67,26-332-PL,26-332,Sławno,PL,Europe,51.3512,20.2079
68,26-332-PL,26-332,Sławno,PL,Europe,51.4265,20.0927
69,26-332-PL,26-332,Sławno,PL,Europe,51.3917,20.0887
70,26-332-PL,26-332,Sławno,PL,Europe,51.4101,20.144
71,26-332-PL,26-332,Sławno,PL,Europe,51.4163,20.1215
72,26-332-PL,26-332,Sławno,PL,Europe,51.4377,20.1522
73,26-332-PL,26-332,Sławno,PL,Europe,51.4083,20.0916
74,26-332-PL,26-332,Sławno,PL,Europe,51.3389,20.149
75,26-332-PL,26-332,Sławno,PL,Europe,51.4133,20.1733
76,26-332-PL,26-332,Sławno,PL,Europe,51.3421,20.1928
77,26-332-PL,26-332,Sławno,PL,Europe,51.3671,20.1146
78,26-332-PL,26-332,Sławno,PL,Europe,51.3683,20.1774
79,26-332-PL,26-332,Sławno,PL,Europe,51.4564,20.1364
80,26-332-PL,26-332,Sławno,PL,Europe,51.4376,20.0845
81,26-332-PL,26-332,Sławno,PL,Europe,51.3973,20.1806
82,26-332-PL,26-332,Sławno,PL,Europe,51.3666,20.109
83,26-332-PL,26-332,Sławno,PL,Europe,51.4228,20.171
84,26-332-PL,26-332,Sławno,PL,Europe,51.3876,20.1401
85,26-332-PL,26-332,Sławno,PL,Europe,51.4014,20.1297
86,28-100-PL,28-100,Busko-Zdrój,PL,Europe,50.4338,20.7092
87,28-100-PL,28-100,Busko-Zdrój,PL,Europe,50.4401,20.6892
88,28-100-PL,28-100,Busko-Zdrój,PL,Europe,50.4877,20.6511
89,28-100-PL,28-100,Busko-Zdrój,PL,Europe,50.4812,20.748
90,28-100-PL,28-100,Busko-Zdrój,PL,Europe,50.382,20.7647
91,28-100-PL,28-100,Busko-Zdrój,PL,Europe,50.4572,20.8276
92,28-100-PL,28-100,Busko-Zdrój,PL,Europe,50.4621,20.653
93,28-100-PL,28-100,Busko-Zdrój,PL,Europe,50.4591,20.8195
94,28-100-PL,28-100,Busko-Zdrój,PL,Europe,50.4557,20.6948
95,28-100-PL,28-100,Busko-Zdrój,PL,Europe,50.5127,20.7404
96,28-100-PL,28-100,Busko-Zdrój,PL,Europe,50.5287,20.8123
97,28-100-PL,28-100,Busko-Zdrój,PL,Europe,50.4674,20.7556
98,28-100-PL,28-100,Busko-Zdrój,PL,Europe,50.4309,20.7503
99,28-100-PL,28-100,Busko-Zdrój,PL,Europe,50.5097,20.7724
100,28-100-PL,28-100,Busko-Zdrój,PL,Europe,50.4988,20.835
101,28-100-PL,28-100,Busko-Zdrój,PL,Europe,50.4472,20.7242
102,28-100-PL,28-100,Busko-Zdrój,PL,Europe,50.5135,20.713
103,28-100-PL,28-100,Busko-Zdrój,PL,Europe,50.4701,20.7193
104,28-100-PL,28-100,Busko-Zdrój,PL,Europe,50.5007,20.8967
105,28-100-PL,28-100,Busko-Zdrój,PL,Europe,50.4899,20.7628
106,28-100-PL,28-100,Busko-Zdrój,PL,Europe,50.5333,20.8511
107,28-100-PL,28-100,Busko-Zdrój,PL,Europe,50.4668,20.6749
108,28-100-PL,28-100,Busko-Zdrój,PL,Europe,50.4651,20.6244
109,28-100-PL,28-100,Busko-Zdrój,PL,Europe,50.429,20.7304
110,28-100-PL,28-100,Busko-Zdrój,PL,Europe,50.5185,20.6883
111,28-100-PL,28-100,Busko-Zdrój,PL,Europe,50.4461,20.6595
112,28-100-PL,28-100,Busko-Zdrój,PL,Europe,50.4945,20.7141
113,28-100-PL,28-100,Busko-Zdrój,PL,Europe,50.55,20.7261
114,28-100-PL,28-100,Busko-Zdrój,PL,Europe,50.5296,20.7659
115,28-100-PL,28-100,Busko-Zdrój,PL,Europe,50.459,20.6371
116,28-100-PL,28-100,Busko-Zdrój,PL,Europe,50.4485,20.7871
117,28-100-PL,28-100,Busko-Zdrój,PL,Europe,50.3927,20.7416
118,28-100-PL,28-100,Busko-Zdrój,PL,Europe,50.486,20.7926
119,28-100-PL,28-100,Busko-Zdrój,PL,Europe,50.5203,20.6512
120,28-100-PL,28-100,Busko-Zdrój,PL,Europe,50.4313,20.7817
121,28-100-PL,28-100,Busko-Zdrój,PL,Europe,50.4639,20.7924
122,28-100-PL,28-100,Busko-Zdrój,PL,Europe,50.4981,20.6805
123,28-100-PL,28-100,Busko-Zdrój,PL,Europe,50.4781,20.8363
124,28-100-PL,28-100,Busko-Zdrój,PL,Europe,50.4114,20.7991
125,28-100-PL,28-100,Busko-Zdrój,PL,Europe,50.4363,20.7925
126,28-100-PL,28-100,Busko-Zdrój,PL,Europe,50.5017,20.6525
127,28-100-PL,28-100,Busko-Zdrój,PL,Europe,50.5264,20.742
128,28-100-PL,28-100,Busko-Zdrój,PL,Europe,50.3991,20.8012
129,28-100-PL,28-100,Busko-Zdrój,PL,Europe,50.4943,20.8576
130,28-100-PL,28-100,Busko-Zdrój,PL,Europe,50.4501,20.8074
131,28-100-PL,28-100,Busko-Zdrój,PL,Europe,50.401,20.7712
132,28-100-PL,28-100,Busko-Zdrój,PL,Europe,50.409,20.7562
133,28-100-PL,28-100,Busko-Zdrój,PL,Europe,50.5074,20.8046
134,28-100-PL,28-100,Busko-Zdrój,PL,Europe,50.4522,20.7469
135,29-100-PL,29-100,Włoszczowa,PL,Europe,50.7929,20.0829
136,29-100-PL,29-100,Włoszczowa,PL,Europe,50.8392,19.9191
137,29-100-PL,29-100,Włoszczowa,PL,Europe,50.8042,19.9534
138,29-100-PL,29-100,Włoszczowa,PL,Europe,50.8107,19.9262
139,29-100-PL,29-100,Włoszczowa,PL,Europe,50.7765,20.0658
140,29-100-PL,29-100,Włoszczowa,PL,Europe,50.8752,19.9259
141,29-100-PL,29-100,Włoszczowa,PL,Europe,50.8834,19.7882
142,29-100-PL,29-100,Włoszczowa,PL,Europe,50.8266,19.9958
143,29-100-PL,29-100,Włoszczowa,PL,Europe,50.7804,19.9897
144,29-100-PL,29-100,Włoszczowa,PL,Europe,50.8269,20.102
145,29-100-PL,29-100,Włoszczowa,PL,Europe,50.8818,19.8872
146,29-100-PL,29-100,Włoszczowa,PL,Europe,50.7624,20.0418
147,29-100-PL,29-100,Włoszczowa,PL,Europe,50.8652,19.7952
148,29-100-PL,29-100,Włoszczowa,PL,Europe,50.7904,19.909
149,29-100-PL,29-100,Włoszczowa,PL,Europe,50.893,19.8026
150,29-100-PL,29-100,Włoszczowa,PL,Europe,50.7734,20.0428
151,29-100-PL,29-100,Włoszczowa,PL,Europe,50.8939,19.9897
152,29-100-PL,29-100,Włoszczowa,PL,Europe,50.7907,20.0383
153,29-100-PL,29-100,Włoszczowa,PL,Europe,50.8247,20.0706
154,29-100-PL,29-100,Włoszczowa,PL,Europe,50.8868,19.9481
155,29-100-PL,29-100,Włoszczowa,PL,Europe,50.7574,19.9889
156,29-100-PL,29-100,Włoszczowa,PL,Europe,50.8319,19.9718
157,29-100-PL,29-100,Włoszczowa,PL,Europe,50.7643,19.9941
158,29-100-PL,29-100,Włoszczowa,PL,Europe,50.859,19.9347
159,29-100-PL,29-100,Włoszczowa,PL,Europe,50.819,20.027
160,29-100-PL,29-100,Włoszczowa,PL,Europe,50.8271,19.9548
161,29-100-PL,29-100,Włoszczowa,PL,Europe,50.7406,20.0477
162,29-100-PL,29-100,Włoszczowa,PL,Europe,50.8521,19.9742
163,29-100-PL,29-100,Włoszczowa,PL,Europe,50.8506,19.8766
164,30-002-PL,30-002,Kraków,PL,Europe,50.077,19.9364
165,30-644-PL,30-644,Kraków,PL,Europe,50.027,19.9621
166,30-698-PL,30-698,Kraków,PL,Europe,49.9361,20.0159
167,30-698-PL,30-698,Kraków,PL,Europe,49.9191,20.0546
168,30-698-PL,30-698,Kraków,PL,Europe,49.9872,20.1053
169,30-698-PL,30-698,Kraków,PL,Europe,49.9522,20.0497
170,30-698-PL,30-698,Kraków,PL,Europe,49.9709,19.9781
171,30-698-PL,30-698,Kraków,PL,Europe,49.9863,19.948
172,30-703-PL,30-703,Kraków,PL,Europe,50.0462,19.9652
173,30-732-PL,30-732,Kraków,PL,Europe,50.0365,19.9995
174,30-740-PL,30-740,Kraków,PL,Europe,50.0343,20.0423
175,30-969-PL,30-969,Kraków,PL,Europe,50.0785,20.0464
176,32-300-PL,32-300,Olkusz,PL,Europe,50.3818,19.7384
177,32-300-PL,32-300,Olkusz,PL,Europe,50.2175,19.557
178,32-300-PL,32-300,Olkusz,PL,Europe,50.3125,19.584
179,32-300-PL,32-300,Olkusz,PL,Europe,50.2776,19.606
180,32-300-PL,32-300,Olkusz,PL,Europe,50.336,19.6427
181,32-300-PL,32-300,Olkusz,PL,Europe,50.2477,19.6608
182,32-300-PL,32-300,Olkusz,PL,Europe,50.2744,19.628
183,32-300-PL,32-300,Olkusz,PL,Europe,50.3313,19.6539
184,32-300-PL,32-300,Olkusz,PL,Europe,50.2562,19.6406
185,32-300-PL,32-300,Olkusz,PL,Europe,50.248,19.6172
186,32-300-PL,32-300,Olkusz,PL,Europe,50.3028,19.6408
187,32-300-PL,32-300,Olkusz,PL,Europe,50.2497,19.5778
188,32-300-PL,32-300,Olkusz,PL,Europe,50.3089,19.5764
189,32-300-PL,32-300,Olkusz,PL,Europe,50.3165,19.6354
190,32-300-PL,32-300,Olkusz,PL,Europe,50.2695,19.6577
191,32-300-PL,32-300,Olkusz,PL,Europe,50.2512,19.5468
192,32-300-PL,32-300,Olkusz,PL,Europe,50.2686,19.6108
193,32-300-PL,32-300,Olkusz,PL,Europe,50.2464,19.5993
194,32-300-PL,32-300,Olkusz,PL,Europe,50.2997,19.5924
195,32-300-PL,32-300,Olkusz,PL,Europe,50.3082,19.6648
196,32-300-PL,32-300,Olkusz,PL,Europe,50.2818,19.5634
197,32-700-PL,32-700,Bochnia,PL,Europe,50.0127,20.4611
198,32-700-PL,32-700,Bochnia,PL,Europe,49.9141,20.3885
199,32-700-PL,32-700,Bochnia,PL,Europe,49.9888,20.4821
200,32-700-PL,32-700,Bochnia,PL,Europe,50.0075,20.4412
201,32-700-PL,32-700,Bochnia,PL,Europe,49.9105,20.4071
202,32-700-PL,32-700,Bochnia,PL,Europe,49.9576,20.4903
203,32-700-PL,32-700,Bochnia,PL,Europe,49.9696,20.4314
204,32-700-PL,32-700,Bochnia,PL,Europe,49.9929,20.3993
205,32-700-PL,32-700,Bochnia,PL,Europe,49.9835,20.3716
206,32-700-PL,32-700,Bochnia,PL,Europe,49.9164,20.3743
207,32-700-PL,32-700,Bochnia,PL,Europe,49.9733,20.4757
208,32-700-PL,32-700,Bochnia,PL,Europe,50.0064,20.4289
209,32-700-PL,32-700,Bochnia,PL,Europe,49.8987,20.3867
210,32-700-PL,32-700,Bochnia,PL,Europe,49.9293,20.3997
211,32-700-PL,32-700,Bochnia,PL,Europe,49.5805,19.9731
212,33-100-PL,33-100,Tarnów,PL,Europe,50.0973,21.0976
213,33-100-PL,33-100,Tarnów,PL,Europe,50.0762,20.9924
214,33-100-PL,33-100,Tarnów,PL,Europe,50.0902,21.1446
215,33-100-PL,33-100,Tarnów,PL,Europe,50.0158,20.9769
216,33-300-PL,33-300,Nowy Sącz,PL,Europe,49.6897,21.1954
217,33-300-PL,33-300,Nowy Sącz,PL,Europe,49.6857,20.664
218,33-300-PL,33-300,Nowy Sącz,PL,Europe,49.6242,20.7548
219,33-300-PL,33-300,Nowy Sącz,PL,Europe,49.5967,20.7505
220,33-300-PL,33-300,Nowy Sącz,PL,Europe,49.6466,20.7375
221,33-300-PL,33-300,Nowy Sącz,PL,Europe,49.6788,20.7343
222,33-300-PL,33-300,Nowy Sącz,PL,Europe,49.6239,20.6521
223,33-300-PL,33-300,Nowy Sącz,PL,Europe,49.6449,20.7682
224,33-300-PL,33-300,Nowy Sącz,PL,Europe,49.66,20.7275
225,33-300-PL,33-300,Nowy Sącz,PL,Europe,49.6546,20.643
226,33-300-PL,33-300,Nowy Sącz,PL,Europe,49.6639,20.7533
227,33-300-PL,33-300,Nowy Sącz,PL,Europe,49.6059,20.7632
228,33-300-PL,33-300,Nowy Sącz,PL,Europe,49.6152,20.8106
229,33-300-PL,33-300,Nowy Sącz,PL,Europe,49.5539,20.3825
230,33-300-PL,33-300,Nowy Sącz,PL,Europe,49.5843,20.7541
231,33-300-PL,33-300,Nowy Sącz,PL,Europe,49.6094,20.7045
232,33-370-PL,33-370,Muszyna,PL,Europe,49.3611,20.8085
233,33-370-PL,33-370,Muszyna,PL,Europe,49.3559,20.8031
234,33-370-PL,33-370,Muszyna,PL,Europe,49.3688,20.9511
235,33-370-PL,33-370,Muszyna,PL,Europe,49.3434,20.821
236,33-370-PL,33-370,Muszyna,PL,Europe,49.3451,20.9951
237,33-370-PL,33-370,Muszyna,PL,Europe,49.3846,20.8659
238,33-370-PL,33-370,Muszyna,PL,Europe,49.3,20.9364
239,33-370-PL,33-370,Muszyna,PL,Europe,49.371,20.8891
240,33-370-PL,33-370,Muszyna,PL,Europe,49.3875,20.9134
241,33-370-PL,33-370,Muszyna,PL,Europe,49.3146,20.9727
242,33-370-PL,33-370,Muszyna,PL,Europe,49.375,20.8003
243,33-370-PL,33-370,Muszyna,PL,Europe,49.3596,20.854
244,33-370-PL,33-370,Muszyna,PL,Europe,49.3517,20.9016
245,34-114-PL,34-114,Brzeźnica,PL,Europe,49.9378,19.6094
246,34-114-PL,34-114,Brzeźnica,PL,Europe,49.9661,19.6355
247,34-114-PL,34-114,Brzeźnica,PL,Europe,49.9532,19.5745
248,34-114-PL,34-114,Brzeźnica,PL,Europe,49.9781,19.5484
249,34-114-PL,34-114,Brzeźnica,PL,Europe,49.9672,19.5999
250,34-114-PL,34-114,Brzeźnica,PL,Europe,49.959,19.6132
251,34-114-PL,34-114,Brzeźnica,PL,Europe,49.96,19.6486
252,34-114-PL,34-114,Brzeźnica,PL,Europe,49.9389,19.641
253,34-114-PL,34-114,Brzeźnica,PL,Europe,49.9783,19.6104
254,34-700-PL,34-700,Rabka-Zdrój,PL,Europe,49.5583,19.9668
255,34-700-PL,34-700,Rabka-Zdrój,PL,Europe,49.5625,19.9612
256,34-700-PL,34-700,Rabka-Zdrój,PL,Europe,49.5662,19.9608
257,34-700-PL,34-700,Rabka-Zdrój,PL,Europe,49.592,19.9291
258,34-700-PL,34-700,Rabka-Zdrój,PL,Europe,49.6089,19.9644
259,34-700-PL,34-700,Rabka-Zdrój,PL,Europe,49.5741,19.9818
260,34-700-PL,34-700,Rabka-Zdrój,PL,Europe,49.5616,19.9643
261,3542 EG-NL,3542 EG,Utrecht,NL,Europe,,
262,37-200-PL,37-200,Przeworsk,PL,Europe,50.0157,22.4991
263,37-200-PL,37-200,Przeworsk,PL,Europe,50.0379,22.5602
264,37-200-PL,37-200,Przeworsk,PL,Europe,50.0421,22.4434
265,37-200-PL,37-200,Przeworsk,PL,Europe,50.0831,22.5287
266,37-200-PL,37-200,Przeworsk,PL,Europe,50.0587,22.4015
267,37-200-PL,37-200,Przeworsk,PL,Europe,50.0285,22.5219
268,37-200-PL,37-200,Przeworsk,PL,Europe,50.0007,22.4983
269,37-200-PL,37-200,Przeworsk,PL,Europe,50.0878,22.4957
270,37-200-PL,37-200,Przeworsk,PL,Europe,50.0671,22.5849
271,37-200-PL,37-200,Przeworsk,PL,Europe,50.0125,22.4615
272,37-200-PL,37-200,Przeworsk,PL,Europe,50.0459,22.459
273,37-200-PL,37-200,Przeworsk,PL,Europe,50.057,22.5409
274,37-200-PL,37-200,Przeworsk,PL,Europe,50.0592,22.4957
275,37-200-PL,37-200,Przeworsk,PL,Europe,50.0783,22.4503
276,37-200-PL,37-200,Przeworsk,PL,Europe,50.0621,22.448
277,37-200-PL,37-200,Przeworsk,PL,Europe,50.0965,22.4313
278,37-700-PL,37-700,Przemyśl,PL,Europe,49.7664,22.8301
279,37-700-PL,37-700,Przemyśl,PL,Europe,49.7349,22.7526
280,37-700-PL,37-700,Przemyśl,PL,Europe,49.8303,22.6695
281,37-700-PL,37-700,Przemyśl,PL,Europe,49.8403,22.7213
282,37-700-PL,37-700,Przemyśl,PL,Europe,49.7515,22.8027
283,37-700-PL,37-700,Przemyśl,PL,Europe,49.7444,22.7771
284,37-700-PL,37-700,Przemyśl,PL,Europe,49.7246,22.8343
285,37-700-PL,37-700,Przemyśl,PL,Europe,49.7288,22.7276
286,37-700-PL,37-700,Przemyśl,PL,Europe,49.7645,22.6975
287,37-700-PL,37-700,Przemyśl,PL,Europe,49.7348,22.8454
288,37-700-PL,37-700,Przemyśl,PL,Europe,49.7026,22.8266
289,37-700-PL,37-700,Przemyśl,PL,Europe,49.8094,22.6664
290,37-700-PL,37-700,Przemyśl,PL,Europe,49.7502,22.8284
291,37-700-PL,37-700,Przemyśl,PL,Europe,49.7889,22.7161
292,37-700-PL,37-700,Przemyśl,PL,Europe,49.8047,22.7167
293,37-700-PL,37-700,Przemyśl,PL,Europe,49.8163,22.6989
294,37-700-PL,37-700,Przemyśl,PL,Europe,49.7239,22.8092
295,37-700-PL,37-700,Przemyśl,PL,Europe,49.7863,22.7718
296,39-200-PL,39-200,Dębica,PL,Europe,49.9646,21.4659
297,39-200-PL,39-200,Dębica,PL,Europe,50.01,21.3497
298,39-200-PL,39-200,Dębica,PL,Europe,49.994,21.3148
299,39-200-PL,39-200,Dębica,PL,Europe,50.0899,21.5271
300,39-200-PL,39-200,Dębica,PL,Europe,50.1007,21.4856
301,39-200-PL,39-200,Dębica,PL,Europe,50.0281,21.4978
302,39-200-PL,39-200,Dębica,PL,Europe,49.9859,21.4363
303,39-200-PL,39-200,Dębica,PL,Europe,50.0852,21.4392
304,39-200-PL,39-200,Dębica,PL,Europe,49.9604,21.4471
305,39-200-PL,39-200,Dębica,PL,Europe,50.0144,21.4678
306,39-200-PL,39-200,Dębica,PL,Europe,50.1394,21.5069
307,39-200-PL,39-200,Dębica,PL,Europe,50.0756,21.4547
308,39-200-PL,39-200,Dębica,PL,Europe,50.0551,21.4846
309,39-200-PL,39-200,Dębica,PL,Europe,50.0881,21.4561
310,39-200-PL,39-200,Dębica,PL,Europe,50.023,21.3796
311,39-200-PL,39-200,Dębica,PL,Europe,50.0539,21.462
312,39-200-PL,39-200,Dębica,PL,Europe,50.0467,21.4118
313,39-200-PL,39-200,Dębica,PL,Europe,50.0051,21.404
314,39-200-PL,39-200,Dębica,PL,Europe,50.0135,21.2795
315,40-337-PL,40-337,Katowice,PL,Europe,50.263,19.0953
316,41-300-PL,41-300,Dąbrowa Górnicza,PL,Europe,50.344,19.2601
317,41-700-PL,41-700,Ruda Śląska,PL,Europe,50.2924,18.8577
318,41-800-PL,41-800,Zabrze,PL,Europe,50.3055,18.7777
319,42-400-PL,42-400,Zawiercie,PL,Europe,50.496,19.4381
320,42-530-PL,42-530,Dąbrowa Górnicza,PL,Europe,50.3086,19.2723
321,42-600-PL,42-600,Tarnowskie Góry,PL,Europe,50.446,18.8507
322,43-155-PL,43-155,Bieruń,PL,Europe,50.0744,19.1721
323,43-300-PL,43-300,Bielsko-Biała,PL,Europe,49.6616,18.8228
324,43-300-PL,43-300,Bielsko-Biała,PL,Europe,50.585,19.327
325,43-300-PL,43-300,Bielsko-Biała,PL,Europe,49.8204,19.053
326,43-430-PL,43-430,Skoczów,PL,Europe,49.7583,18.7921
327,43-430-PL,43-430,Skoczów,PL,Europe,49.8404,18.7664
328,43-430-PL,43-430,Skoczów,PL,Europe,49.7719,18.788
329,43-430-PL,43-430,Skoczów,PL,Europe,49.8364,18.8201
330,43-430-PL,43-430,Skoczów,PL,Europe,49.7991,18.8296
331,43-430-PL,43-430,Skoczów,PL,Europe,49.7983,18.7674
332,43-430-PL,43-430,Skoczów,PL,Europe,49.8213,18.78
333,43-430-PL,43-430,Skoczów,PL,Europe,49.851,18.7627
334,43-430-PL,43-430,Skoczów,PL,Europe,49.7801,18.8029
335,43-430-PL,43-430,Skoczów,PL,Europe,49.8018,18.7923
336,43-430-PL,43-430,Skoczów,PL,Europe,49.7823,18.7716
337,43-430-PL,43-430,Skoczów,PL,Europe,49.8276,18.7986
338,43-430-PL,43-430,Skoczów,PL,Europe,49.8225,18.8377
339,44-100-PL,44-100,Gliwice,PL,Europe,50.2909,18.6667
340,44-109-PL,44-109,Gliwice,PL,Europe,50.3762,18.5285
341,44-109-PL,44-109,Gliwice,PL,Europe,50.3814,18.4786
342,44-109-PL,44-109,Gliwice,PL,Europe,50.3483,18.4503
343,44-109-PL,44-109,Gliwice,PL,Europe,50.3462,18.5576
344,44-109-PL,44-109,Gliwice,PL,Europe,50.4153,18.4226
345,44-109-PL,44-109,Gliwice,PL,Europe,50.3434,18.5227
346,44-109-PL,44-109,Gliwice,PL,Europe,50.3215,18.4467
347,44-109-PL,44-109,Gliwice,PL,Europe,50.4109,18.404
348,44-109-PL,44-109,Gliwice,PL,Europe,50.3441,18.5828
349,44-109-PL,44-109,Gliwice,PL,Europe,50.433,18.4593
350,44-109-PL,44-109,Gliwice,PL,Europe,50.3339,18.4796
351,44-109-PL,44-109,Gliwice,PL,Europe,50.3684,18.404
352,44-109-PL,44-109,Gliwice,PL,Europe,50.3918,18.5315
353,44-109-PL,44-109,Gliwice,PL,Europe,50.3477,18.6244
354,46-040-PL,46-040,Ozimek,PL,Europe,50.6673,18.1931
355,46-040-PL,46-040,Ozimek,PL,Europe,50.6701,18.2519
356,46-040-PL,46-040,Ozimek,PL,Europe,50.695,18.1741
357,46-040-PL,46-040,Ozimek,PL,Europe,50.7016,18.1842
358,46-040-PL,46-040,Ozimek,PL,Europe,50.6966,18.3141
359,46-040-PL,46-040,Ozimek,PL,Europe,50.6777,18.1865
360,46-040-PL,46-040,Ozimek,PL,Europe,50.699,18.1486
361,46-040-PL,46-040,Ozimek,PL,Europe,50.7365,18.2144
362,46-040-PL,46-040,Ozimek,PL,Europe,50.6499,18.2177
363,46-040-PL,46-040,Ozimek,PL,Europe,50.704,18.276
364,46-040-PL,46-040,Ozimek,PL,Europe,50.6927,18.198
365,46-040-PL,46-040,Ozimek,PL,Europe,50.72,18.2904
366,46-040-PL,46-040,Ozimek,PL,Europe,50.6761,18.2155
367,47-225-PL,47-225,Kędzierzyn-Koźle,PL,Europe,50.3579,18.2555
368,48-303-PL,48-303,Nysa,PL,Europe,50.4377,17.313
369,48-303-PL,48-303,Nysa,PL,Europe,50.4219,17.4344
370,48-303-PL,48-303,Nysa,PL,Europe,50.4574,17.3434
371,48-303-PL,48-303,Nysa,PL,Europe,50.473,17.4328
372,48-303-PL,48-303,Nysa,PL,Europe,50.4125,17.2779
373,48-303-PL,48-303,Nysa,PL,Europe,50.4009,17.4668
374,48-303-PL,48-303,Nysa,PL,Europe,50.4695,17.3943
375,48-303-PL,48-303,Nysa,PL,Europe,50.4345,17.3406
376,48-303-PL,48-303,Nysa,PL,Europe,50.4505,17.392
377,48-303-PL,48-303,Nysa,PL,Europe,50.4313,17.3628
378,48-303-PL,48-303,Nysa,PL,Europe,50.4068,17.301
379,48-303-PL,48-303,Nysa,PL,Europe,50.4117,17.3306
380,48-303-PL,48-303,Nysa,PL,Europe,50.4156,17.2965
381,48-303-PL,48-303,Nysa,PL,Europe,50.4505,17.4396
382,48-303-PL,48-303,Nysa,PL,Europe,50.478,17.3655
383,48-303-PL,48-303,Nysa,PL,Europe,50.4318,17.275
384,48-303-PL,48-303,Nysa,PL,Europe,50.4178,17.3888
385,53-609-PL,53-609,Wrocław Psie Pole,PL,Europe,51.1102,16.986
386,55-330-PL,55-330,LUTYNIA,PL,Europe,51.2441,16.7986
387,55-330-PL,55-330,LUTYNIA,PL,Europe,51.2261,16.8009
388,55-330-PL,55-330,LUTYNIA,PL,Europe,51.1153,16.7814
389,55-330-PL,55-330,LUTYNIA,PL,Europe,51.1892,16.6926
390,55-330-PL,55-330,LUTYNIA,PL,Europe,51.2274,16.7314
391,55-330-PL,55-330,LUTYNIA,PL,Europe,51.1615,16.7498
392,55-330-PL,55-330,LUTYNIA,PL,Europe,51.1293,16.7434
393,55-330-PL,55-330,LUTYNIA,PL,Europe,51.2155,16.7648
394,55-330-PL,55-330,LUTYNIA,PL,Europe,51.2492,16.7251
395,55-330-PL,55-330,LUTYNIA,PL,Europe,51.2248,16.8276
396,55-330-PL,55-330,LUTYNIA,PL,Europe,51.1642,16.8131
397,55-330-PL,55-330,LUTYNIA,PL,Europe,51.2055,16.7645
398,55-330-PL,55-330,LUTYNIA,PL,Europe,51.2181,16.7015
399,55-330-PL,55-330,LUTYNIA,PL,Europe,51.255,16.7739
400,55-330-PL,55-330,LUTYNIA,PL,Europe,51.1992,16.8793
401,55-330-PL,55-330,LUTYNIA,PL,Europe,51.2079,16.8501
402,55-330-PL,55-330,LUTYNIA,PL,Europe,51.177,16.7059
403,55-330-PL,55-330,LUTYNIA,PL,Europe,51.2263,16.694
404,55-330-PL,55-330,LUTYNIA,PL,Europe,51.2095,16.7512
405,55-330-PL,55-330,LUTYNIA,PL,Europe,51.2416,16.7406
406,55-330-PL,55-330,LUTYNIA,PL,Europe,51.2156,16.8041
407,55-330-PL,55-330,LUTYNIA,PL,Europe,51.1472,16.7888
408,55-330-PL,55-330,LUTYNIA,PL,Europe,51.1211,16.7422
409,55-330-PL,55-330,LUTYNIA,PL,Europe,51.1683,16.7942
410,55-330-PL,55-330,LUTYNIA,PL,Europe,51.1749,16.696
411,55-330-PL,55-330,LUTYNIA,PL,Europe,51.0977,16.8147
412,55-330-PL,55-330,LUTYNIA,PL,Europe,51.238,16.8186
413,55-330-PL,55-330,LUTYNIA,PL,Europe,51.1123,16.8095
414,55-330-PL,55-330,LUTYNIA,PL,Europe,51.2135,16.7259
415,55-330-PL,55-330,LUTYNIA,PL,Europe,51.1339,16.7858
416,55-330-PL,55-330,LUTYNIA,PL,Europe,51.1865,16.7875
417,55-330-PL,55-330,LUTYNIA,PL,Europe,51.1992,16.8275
418,55-330-PL,55-330,LUTYNIA,PL,Europe,51.1888,16.8578
419,55-330-PL,55-330,LUTYNIA,PL,Europe,51.2405,16.7234
420,55-330-PL,55-330,LUTYNIA,PL,Europe,51.2018,16.797
421,55-330-PL,55-330,LUTYNIA,PL,Europe,51.2425,16.764
422,55-330-PL,55-330,LUTYNIA,PL,Europe,51.1602,16.7259
423,55-330-PL,55-330,LUTYNIA,PL,Europe,51.1904,16.7376
424,55-330-PL,55-330,LUTYNIA,PL,Europe,51.2153,16.8247
425,55-330-PL,55-330,LUTYNIA,PL,Europe,51.1759,16.815
426,57-100-PL,57-100,Strzelin,PL,Europe,50.7376,17.0319
427,57-100-PL,57-100,Strzelin,PL,Europe,50.7904,17.0066
428,57-100-PL,57-100,Strzelin,PL,Europe,50.8838,16.9913
429,57-100-PL,57-100,Strzelin,PL,Europe,50.7219,17.0557
430,57-100-PL,57-100,Strzelin,PL,Europe,50.789,17.0414
431,57-100-PL,57-100,Strzelin,PL,Europe,50.8322,17.0919
432,57-100-PL,57-100,Strzelin,PL,Europe,50.8,17.1343
433,57-100-PL,57-100,Strzelin,PL,Europe,50.7027,17.0577
434,57-100-PL,57-100,Strzelin,PL,Europe,50.742,17.1788
435,57-100-PL,57-100,Strzelin,PL,Europe,50.7731,17.1192
436,57-100-PL,57-100,Strzelin,PL,Europe,50.7448,17.1062
437,57-100-PL,57-100,Strzelin,PL,Europe,50.7639,17.1533
438,57-100-PL,57-100,Strzelin,PL,Europe,50.7055,16.9811
439,57-100-PL,57-100,Strzelin,PL,Europe,50.6856,17.169
440,57-100-PL,57-100,Strzelin,PL,Europe,50.7918,17.123
441,57-100-PL,57-100,Strzelin,PL,Europe,50.762,17.0188
442,57-100-PL,57-100,Strzelin,PL,Europe,50.7946,17.0576
443,57-100-PL,57-100,Strzelin,PL,Europe,50.7515,17.041
444,57-100-PL,57-100,Strzelin,PL,Europe,50.7766,17.0374
445,57-100-PL,57-100,Strzelin,PL,Europe,50.8138,17.0217
446,57-100-PL,57-100,Strzelin,PL,Europe,50.7634,17.0719
447,57-100-PL,57-100,Strzelin,PL,Europe,50.7399,17.0611
448,57-100-PL,57-100,Strzelin,PL,Europe,50.8107,17.0741
449,57-100-PL,57-100,Strzelin,PL,Europe,50.828,17.0601
450,57-100-PL,57-100,Strzelin,PL,Europe,50.7595,17.0895
451,57-100-PL,57-100,Strzelin,PL,Europe,50.7131,17.0425
452,57-100-PL,57-100,Strzelin,PL,Europe,50.7292,17.0167
453,57-100-PL,57-100,Strzelin,PL,Europe,50.7817,17.0722
454,57-100-PL,57-100,Strzelin,PL,Europe,50.6972,16.9707
455,57-100-PL,57-100,Strzelin,PL,Europe,50.805,17.1082
456,57-100-PL,57-100,Strzelin,PL,Europe,50.721,17.0136
457,57-100-PL,57-100,Strzelin,PL,Europe,50.7986,17.094
458,57-100-PL,57-100,Strzelin,PL,Europe,50.7297,17.0411
459,57-100-PL,57-100,Strzelin,PL,Europe,50.832,17.1028
460,57-100-PL,57-100,Strzelin,PL,Europe,50.818,17.1331
461,57-100-PL,57-100,Strzelin,PL,Europe,50.7646,16.9919
462,57-100-PL,57-100,Strzelin,PL,Europe,50.7564,17.1766
463,57-100-PL,57-100,Strzelin,PL,Europe,50.8198,17.0454
464,57-100-PL,57-100,Strzelin,PL,Europe,50.7769,17.139
465,57-100-PL,57-100,Strzelin,PL,Europe,50.7043,17.0229
466,57-100-PL,57-100,Strzelin,PL,Europe,51.0279,16.9665
467,58-400-PL,58-400,Kamienna Góra,PL,Europe,50.762,15.9905
468,58-400-PL,58-400,Kamienna Góra,PL,Europe,50.6806,16.0676
469,58-400-PL,58-400,Kamienna Góra,PL,Europe,50.6956,16.1466
470,58-400-PL,58-400,Kamienna Góra,PL,Europe,50.7862,15.9565
471,58-400-PL,58-400,Kamienna Góra,PL,Europe,50.7651,15.8858
472,58-400-PL,58-400,Kamienna Góra,PL,Europe,50.7626,16.058
473,58-400-PL,58-400,Kamienna Góra,PL,Europe,50.7057,16.1098
474,58-400-PL,58-400,Kamienna Góra,PL,Europe,50.8116,16.0389
475,58-400-PL,58-400,Kamienna Góra,PL,Europe,50.801,15.9142
476,58-400-PL,58-400,Kamienna Góra,PL,Europe,50.7547,15.9346
477,58-400-PL,58-400,Kamienna Góra,PL,Europe,50.6927,16.1256
478,58-400-PL,58-400,Kamienna Góra,PL,Europe,50.7363,16.0523
479,58-400-PL,58-400,Kamienna Góra,PL,Europe,50.7804,16.0325
480,58-400-PL,58-400,Kamienna Góra,PL,Europe,50.7959,16.0429
481,58-400-PL,58-400,Kamienna Góra,PL,Europe,50.8123,15.9413
482,58-400-PL,58-400,Kamienna Góra,PL,Europe,50.7544,16.0168
483,58-400-PL,58-400,Kamienna Góra,PL,Europe,50.7191,16.0468
484,58-400-PL,58-400,Kamienna Góra,PL,Europe,50.8024,15.9818
485,58-400-PL,58-400,Kamienna Góra,PL,Europe,50.7779,15.9073
486,58-400-PL,58-400,Kamienna Góra,PL,Europe,50.7686,15.928
487,58-400-PL,58-400,Kamienna Góra,PL,Europe,50.7164,16.0912
488,58-400-PL,58-400,Kamienna Góra,PL,Europe,50.7073,16.0697
489,59-220-PL,59-220,Legnica,PL,Europe,51.2018,16.1742
490,60-462-PL,60-462,Poznań,PL,Europe,52.4609,16.8762
491,61-064-PL,61-064,Poznań,PL,Europe,52.3894,17.0045
492,61-324-PL,61-324,Poznań,PL,Europe,52.3443,17.012
493,61-362-PL,61-362,Poznań,PL,Europe,52.3678,16.9407
494,61-619-PL,61-619,Poznań,PL,Europe,52.445,16.951
495,61-654-PL,61-654,POZNAŃ,PL,Europe,52.4281,16.9393
496,62-002-PL,62-002,Suchy Las,PL,Europe,52.475,16.8762
497,62-002-PL,62-002,Suchy Las,PL,Europe,52.5118,16.8381
498,62-002-PL,62-002,Suchy Las,PL,Europe,52.4831,16.8569
499,62-002-PL,62-002,Suchy Las,PL,Europe,52.488,16.8489
500,62-030-PL,62-030,Luboń,PL,Europe,52.3407,16.8741
501,62-052-PL,62-052,Komorniki,PL,Europe,52.3174,16.7719
502,62-052-PL,62-052,Komorniki,PL,Europe,52.3181,16.8661
503,62-052-PL,62-052,Komorniki,PL,Europe,52.3459,16.7691
504,62-052-PL,62-052,Komorniki,PL,Europe,52.3369,16.814
505,62-052-PL,62-052,Komorniki,PL,Europe,52.3184,16.7989
506,62-052-PL,62-052,Komorniki,PL,Europe,52.3022,16.7662
507,62-052-PL,62-052,Komorniki,PL,Europe,52.3296,16.7496
508,62-052-PL,62-052,Komorniki,PL,Europe,52.3304,16.7799
509,62-052-PL,62-052,Komorniki,PL,Europe,52.2837,16.804
510,62-080-PL,62-080,Tarnowo Podgórne,PL,Europe,52.4506,16.7679
511,62-080-PL,62-080,Tarnowo Podgórne,PL,Europe,52.4949,16.6533
512,62-080-PL,62-080,Tarnowo Podgórne,PL,Europe,52.4157,16.7842
513,62-080-PL,62-080,Tarnowo Podgórne,PL,Europe,52.448,16.7228
514,62-080-PL,62-080,Tarnowo Podgórne,PL,Europe,52.4388,16.7491
515,62-080-PL,62-080,Tarnowo Podgórne,PL,Europe,52.4295,16.7934
516,62-080-PL,62-080,Tarnowo Podgórne,PL,Europe,52.4609,16.624
517,62-080-PL,62-080,Tarnowo Podgórne,PL,Europe,52.435,16.5935
518,62-080-PL,62-080,Tarnowo Podgórne,PL,Europe,52.4383,16.6222
519,62-080-PL,62-080,Tarnowo Podgórne,PL,Europe,52.4712,16.7386
520,62-080-PL,62-080,Tarnowo Podgórne,PL,Europe,52.424,16.677
521,62-080-PL,62-080,Tarnowo Podgórne,PL,Europe,52.4265,16.6412
522,62-080-PL,62-080,Tarnowo Podgórne,PL,Europe,52.43,16.7034
523,62-080-PL,62-080,Tarnowo Podgórne,PL,Europe,52.479,16.6416
524,62-080-PL,62-080,Tarnowo Podgórne,PL,Europe,52.4064,16.6739
525,62-080-PL,62-080,Tarnowo Podgórne,PL,Europe,52.4667,16.6649
526,62-080-PL,62-080,Tarnowo Podgórne,PL,Europe,52.4214,16.75
527,62-090-PL,62-090,Rokietnica,PL,Europe,52.4871,16.7724
528,62-090-PL,62-090,Rokietnica,PL,Europe,52.4927,16.754
529,62-090-PL,62-090,Rokietnica,PL,Europe,52.5268,16.7556
530,62-090-PL,62-090,Rokietnica,PL,Europe,52.4962,16.7976
531,62-090-PL,62-090,Rokietnica,PL,Europe,52.4708,16.7465
532,62-090-PL,62-090,Rokietnica,PL,Europe,52.5136,16.7723
533,62-090-PL,62-090,Rokietnica,PL,Europe,52.5469,16.7535
534,62-090-PL,62-090,Rokietnica,PL,Europe,52.4857,16.6838
535,62-090-PL,62-090,Rokietnica,PL,Europe,52.5162,16.6602
536,62-090-PL,62-090,Rokietnica,PL,Europe,52.5239,16.7295
537,62-090-PL,62-090,Rokietnica,PL,Europe,52.5229,16.6961
538,62-090-PL,62-090,Rokietnica,PL,Europe,52.5222,16.7995
539,62-090-PL,62-090,Rokietnica,PL,Europe,52.4868,16.7317
540,62-090-PL,62-090,Rokietnica,PL,Europe,52.5115,16.7097
541,62-090-PL,62-090,Rokietnica,PL,Europe,52.5108,16.7441
542,62-090-PL,62-090,Rokietnica,PL,Europe,52.4819,16.7548
543,624 00-CZ,624 00,Brno,CZ,Europe,49.2167,16.55
544,624 00-CZ,624 00,Brno,CZ,Europe,49.2167,16.55
545,63-200-PL,63-200,Roszków,PL,Europe,51.9153,17.5664
546,63-200-PL,63-200,Roszków,PL,Europe,51.918,17.5042
547,63-200-PL,63-200,Roszków,PL,Europe,52.0045,17.4799
548,63-200-PL,63-200,Roszków,PL,Europe,51.9827,17.5608
549,63-200-PL,63-200,Roszków,PL,Europe,52.0042,17.4424
550,63-200-PL,63-200,Roszków,PL,Europe,51.9533,17.4169
551,63-200-PL,63-200,Roszków,PL,Europe,52.0147,17.4327
552,63-200-PL,63-200,Roszków,PL,Europe,51.9104,17.5771
553,63-200-PL,63-200,Roszków,PL,Europe,51.9594,17.452
554,63-200-PL,63-200,Roszków,PL,Europe,51.9646,17.5031
555,63-200-PL,63-200,Roszków,PL,Europe,51.9964,17.5883
556,63-200-PL,63-200,Roszków,PL,Europe,52.0225,17.4584
557,63-200-PL,63-200,Roszków,PL,Europe,52.028,17.5796
558,63-200-PL,63-200,Roszków,PL,Europe,51.9345,17.4622
559,63-200-PL,63-200,Roszków,PL,Europe,51.994,17.5597
560,63-200-PL,63-200,Roszków,PL,Europe,52.0267,17.5165
561,63-200-PL,63-200,Roszków,PL,Europe,52.0293,17.5015
562,63-200-PL,63-200,Roszków,PL,Europe,51.9913,17.5281
563,63-200-PL,63-200,Roszków,PL,Europe,51.9144,17.4807
564,63-200-PL,63-200,Roszków,PL,Europe,52.0062,17.5409
565,63-200-PL,63-200,Roszków,PL,Europe,51.909,17.4234
566,63-200-PL,63-200,Roszków,PL,Europe,52.0195,17.5912
567,63-910-PL,63-910,Miejska Górka,PL,Europe,51.6679,16.9911
568,63-910-PL,63-910,Miejska Górka,PL,Europe,51.7113,17.0494
569,63-910-PL,63-910,Miejska Górka,PL,Europe,51.6724,16.8944
570,63-910-PL,63-910,Miejska Górka,PL,Europe,51.6339,16.9647
571,63-910-PL,63-910,Miejska Górka,PL,Europe,51.6861,16.9236
572,63-910-PL,63-910,Miejska Górka,PL,Europe,51.6748,16.9383
573,63-910-PL,63-910,Miejska Górka,PL,Europe,51.692,17.0402
574,63-910-PL,63-910,Miejska Górka,PL,Europe,51.6568,17.0413
575,63-910-PL,63-910,Miejska Górka,PL,Europe,51.6888,17.0759
576,63-910-PL,63-910,Miejska Górka,PL,Europe,51.6559,16.9595
577,63-910-PL,63-910,Miejska Górka,PL,Europe,51.6852,17.0233
578,63-910-PL,63-910,Miejska Górka,PL,Europe,51.6986,16.9779
579,63-910-PL,63-910,Miejska Górka,PL,Europe,51.6646,17.0671
580,63-910-PL,63-910,Miejska Górka,PL,Europe,51.6626,16.9281
581,63-910-PL,63-910,Miejska Górka,PL,Europe,51.6446,16.9247
582,63-910-PL,63-910,Miejska Górka,PL,Europe,51.6838,16.9647
583,63-910-PL,63-910,Miejska Górka,PL,Europe,51.6705,17.0809
584,63-910-PL,63-910,Miejska Górka,PL,Europe,51.7018,16.9471
585,63-910-PL,63-910,Miejska Górka,PL,Europe,51.6497,16.9749
586,63-910-PL,63-910,Miejska Górka,PL,Europe,51.7096,17.0869
587,63-910-PL,63-910,Miejska Górka,PL,Europe,51.6749,17.0417
588,63-910-PL,63-910,Miejska Górka,PL,Europe,51.689,17.005
589,63-910-PL,63-910,Miejska Górka,PL,Europe,51.6423,16.94
590,64-100-PL,64-100,Strzyżewice,PL,Europe,51.8197,16.4154
591,64-100-PL,64-100,Strzyżewice,PL,Europe,51.838,16.4815
592,64-100-PL,64-100,Strzyżewice,PL,Europe,51.843,16.4405
593,64-100-PL,64-100,Strzyżewice,PL,Europe,51.8227,16.4413
594,64-100-PL,64-100,Strzyżewice,PL,Europe,51.8062,16.4825
595,64-100-PL,64-100,Strzyżewice,PL,Europe,51.8093,16.5745
596,64-100-PL,64-100,Strzyżewice,PL,Europe,51.8273,16.5368
597,64-100-PL,64-100,Strzyżewice,PL,Europe,51.8219,16.4851
598,64-100-PL,64-100,Strzyżewice,PL,Europe,51.8443,16.5763
599,64-300-PL,64-300,Nowy Tomyśl,PL,Europe,52.2816,16.2215
600,64-300-PL,64-300,Nowy Tomyśl,PL,Europe,52.3588,16.1825
601,64-300-PL,64-300,Nowy Tomyśl,PL,Europe,52.3327,16.2262
602,64-300-PL,64-300,Nowy Tomyśl,PL,Europe,52.2819,16.1155
603,64-300-PL,64-300,Nowy Tomyśl,PL,Europe,52.2838,16.1953
604,64-300-PL,64-300,Nowy Tomyśl,PL,Europe,52.2658,16.0647
605,64-300-PL,64-300,Nowy Tomyśl,PL,Europe,52.3408,16.1676
606,64-300-PL,64-300,Nowy Tomyśl,PL,Europe,52.3088,16.0951
607,64-300-PL,64-300,Nowy Tomyśl,PL,Europe,52.3489,16.2158
608,64-300-PL,64-300,Nowy Tomyśl,PL,Europe,52.2663,16.1337
609,64-300-PL,64-300,Nowy Tomyśl,PL,Europe,52.3365,16.0953
610,64-300-PL,64-300,Nowy Tomyśl,PL,Europe,52.2497,16.1458
611,64-300-PL,64-300,Nowy Tomyśl,PL,Europe,52.2929,16.2476
612,64-300-PL,64-300,Nowy Tomyśl,PL,Europe,52.3803,16.182
613,64-300-PL,64-300,Nowy Tomyśl,PL,Europe,52.317,16.2093
614,64-300-PL,64-300,Nowy Tomyśl,PL,Europe,52.3163,16.1348
615,64-300-PL,64-300,Nowy Tomyśl,PL,Europe,52.3025,16.1551
616,64-300-PL,64-300,Nowy Tomyśl,PL,Europe,52.3266,16.135
617,64-300-PL,64-300,Nowy Tomyśl,PL,Europe,52.2561,16.0882
618,64-300-PL,64-300,Nowy Tomyśl,PL,Europe,52.2959,16.0624
619,64-920-PL,64-920,Piła,PL,Europe,53.1505,16.7461
620,67-100-PL,67-100,Nowa Sól,PL,Europe,51.812,15.6084
621,67-100-PL,67-100,Nowa Sól,PL,Europe,51.8587,15.8146
622,67-100-PL,67-100,Nowa Sól,PL,Europe,51.7634,15.7095
623,67-100-PL,67-100,Nowa Sól,PL,Europe,51.7881,15.6852
624,67-100-PL,67-100,Nowa Sól,PL,Europe,51.8028,15.7093
625,67-100-PL,67-100,Nowa Sól,PL,Europe,51.8,15.7721
626,67-100-PL,67-100,Nowa Sól,PL,Europe,51.809,15.6488
627,67-100-PL,67-100,Nowa Sól,PL,Europe,51.7637,15.7531
628,67-100-PL,67-100,Nowa Sól,PL,Europe,51.762,15.6774
629,67-100-PL,67-100,Nowa Sól,PL,Europe,51.8743,15.9632
630,67-100-PL,67-100,Nowa Sól,PL,Europe,51.9171,15.9645
631,67-100-PL,67-100,Nowa Sól,PL,Europe,51.7901,15.7459
632,67-100-PL,67-100,Nowa Sól,PL,Europe,51.8848,15.8709
633,67-100-PL,67-100,Nowa Sól,PL,Europe,51.8882,15.9485
634,67-100-PL,67-100,Nowa Sól,PL,Europe,51.8014,15.7344
635,67-100-PL,67-100,Nowa Sól,PL,Europe,51.8074,15.8385
636,67-100-PL,67-100,Nowa Sól,PL,Europe,51.7985,15.6622
637,67-100-PL,67-100,Nowa Sól,PL,Europe,51.8486,15.7857
638,67-100-PL,67-100,Nowa Sól,PL,Europe,51.7783,15.6468
639,67-200-PL,67-200,Głogów,PL,Europe,51.6156,16.1192
640,67-200-PL,67-200,Głogów,PL,Europe,51.7052,16.1585
641,67-200-PL,67-200,Głogów,PL,Europe,51.5738,16.0793
642,67-200-PL,67-200,Głogów,PL,Europe,51.6267,16.0761
643,67-200-PL,67-200,Głogów,PL,Europe,51.6461,16.1677
644,67-200-PL,67-200,Głogów,PL,Europe,51.685,16.1377
645,67-200-PL,67-200,Głogów,PL,Europe,51.6314,16.1219
646,67-200-PL,67-200,Głogów,PL,Europe,51.6269,16.1641
647,67-200-PL,67-200,Głogów,PL,Europe,51.6839,16.1124
648,67-200-PL,67-200,Głogów,PL,Europe,51.656,16.1605
649,67-200-PL,67-200,Głogów,PL,Europe,51.6367,16.0333
650,67-200-PL,67-200,Głogów,PL,Europe,51.6941,16.1999
651,67-200-PL,67-200,Głogów,PL,Europe,51.6393,16.1532
652,67-200-PL,67-200,Głogów,PL,Europe,51.6556,16.09
653,67-200-PL,67-200,Głogów,PL,Europe,51.6826,16.16
654,67-200-PL,67-200,Głogów,PL,Europe,51.6443,16.0842
655,67-200-PL,67-200,Głogów,PL,Europe,51.6871,16.0757
656,70-656-PL,70-656,Szczecin,PL,Europe,53.4198,14.5641
657,70439-DE,70439,Stuttgart,DE,Europe,48.7667,9.1833
658,70439-DE,70439,Stuttgart,DE,Europe,48.8413,9.1525
659,70439-DE,70439,Stuttgart,DE,Europe,48.8357,9.1424
660,70439-DE,70439,Stuttgart,DE,Europe,48.8493,9.156
661,71-646-PL,71-646,Szczecin,PL,Europe,53.4484,14.5742
662,80-180-PL,80-180,Kowale,PL,Europe,54.3107,18.5629
663,80-180-PL,80-180,Kowale,PL,Europe,54.2986,18.5925
664,80-180-PL,80-180,Kowale,PL,Europe,54.2938,18.5628
665,80-180-PL,80-180,Kowale,PL,Europe,54.3182,18.5896
666,80-297-PL,80-297,Miszewko,PL,Europe,54.3886,18.3572
667,80-297-PL,80-297,Miszewko,PL,Europe,54.403,18.3622
668,80-297-PL,80-297,Miszewko,PL,Europe,54.3917,18.3955
669,80-297-PL,80-297,Miszewko,PL,Europe,54.4113,18.4046
670,80-297-PL,80-297,Miszewko,PL,Europe,54.3955,18.3757
671,80-297-PL,80-297,Miszewko,PL,Europe,54.4038,18.4419
672,80-297-PL,80-297,Miszewko,PL,Europe,54.3833,18.4304
673,80-299-PL,80-299,Gdańsk,PL,Europe,54.4158,18.4444
674,80-299-PL,80-299,Gdańsk,PL,Europe,54.4257,18.4685
675,80-442-PL,80-442,Gdańsk,PL,Europe,54.3836,18.6113
676,80-557-PL,80-557,Gdańsk,PL,Europe,54.3874,18.6457
677,80-711-PL,80-711,Gdańsk,PL,Europe,54.3496,18.7502
678,8048-CH,8048,Zürich,CH,Europe,47.3862,8.4793
679,82-300-PL,82-300,Elbląg,PL,Europe,54.1814,19.5121
680,82-300-PL,82-300,Elbląg,PL,Europe,54.172,19.4196
681,83-110-PL,83-110,TCZEW,PL,Europe,54.1339,18.8127
682,83-110-PL,83-110,TCZEW,PL,Europe,54.0436,18.7339
683,83-110-PL,83-110,TCZEW,PL,Europe,54.0501,18.7591
684,83-110-PL,83-110,TCZEW,PL,Europe,54.0254,18.6416
685,83-110-PL,83-110,TCZEW,PL,Europe,54.053,18.663
686,83-110-PL,83-110,TCZEW,PL,Europe,54.0526,18.6761
687,83-110-PL,83-110,TCZEW,PL,Europe,54.1407,18.7808
688,83-110-PL,83-110,TCZEW,PL,Europe,54.0441,18.7033
689,83-110-PL,83-110,TCZEW,PL,Europe,54.1222,18.7877
690,83-110-PL,83-110,TCZEW,PL,Europe,54.0615,18.725
691,83-110-PL,83-110,TCZEW,PL,Europe,54.1345,18.637
692,83-110-PL,83-110,TCZEW,PL,Europe,54.0875,18.7856
693,83-110-PL,83-110,TCZEW,PL,Europe,54.0566,18.7919
694,83-110-PL,83-110,TCZEW,PL,Europe,54.0634,18.8094
695,831 06-SK,831 06,Bratislava,SK,Europe,48.1482,17.1067
696,84-123-PL,84-123,Mrzezino,PL,Europe,,
697,85-715-PL,85-715,Bydgoszcz,PL,Europe,53.1227,18.0872
698,87-800-PL,87-800,Włocławek,PL,Europe,52.6429,19.1885
699,87-800-PL,87-800,Włocławek,PL,Europe,52.6035,19.082
700,87-800-PL,87-800,Włocławek,PL,Europe,52.6565,18.9896
701,87-800-PL,87-800,Włocławek,PL,Europe,52.6214,19.2467
702,87-800-PL,87-800,Włocławek,PL,Europe,52.5847,19.263
703,87-800-PL,87-800,Włocławek,PL,Europe,52.6263,19.1755
704,87-800-PL,87-800,Włocławek,PL,Europe,52.5989,18.9647
705,87-800-PL,87-800,Włocławek,PL,Europe,52.5785,19.0969
706,87-800-PL,87-800,Włocławek,PL,Europe,52.5903,19.0898
707,87-800-PL,87-800,Włocławek,PL,Europe,52.5802,19.0874
708,87-800-PL,87-800,Włocławek,PL,Europe,52.616,19.1602
709,87-800-PL,87-800,Włocławek,PL,Europe,52.5884,19.161
710,87-800-PL,87-800,Włocławek,PL,Europe,52.6041,19.2647
711,87-800-PL,87-800,Włocławek,PL,Europe,52.6137,18.9829
712,87-800-PL,87-800,Włocławek,PL,Europe,52.6449,19.056
713,9031-BE,9031,Gent,BE,Europe,51.0507,3.6565
714,98-330-PL,98-330,Pajęczno,PL,Europe,51.0751,19.0175
715,98-330-PL,98-330,Pajęczno,PL,Europe,51.1137,19.027
716,98-330-PL,98-330,Pajęczno,PL,Europe,51.0995,19.0755
717,98-330-PL,98-330,Pajęczno,PL,Europe,51.1445,18.9976
718,98-330-PL,98-330,Pajęczno,PL,Europe,51.1124,19.0578
719,98-330-PL,98-330,Pajęczno,PL,Europe,51.118,19.0454
720,98-330-PL,98-330,Pajęczno,PL,Europe,51.1656,19.0333
721,98-330-PL,98-330,Pajęczno,PL,Europe,51.1495,19.0436
722,98-330-PL,98-330,Pajęczno,PL,Europe,51.164,18.9843
723,98-330-PL,98-330,Pajęczno,PL,Europe,51.1042,18.9684
724,98-330-PL,98-330,Pajęczno,PL,Europe,51.0931,18.9614
725,98-330-PL,98-330,Pajęczno,PL,Europe,51.1372,19.0454
726,98-330-PL,98-330,Pajęczno,PL,Europe,51.1014,19.0253
727,98-330-PL,98-330,Pajęczno,PL,Europe,51.0897,19.0204
728,98-330-PL,98-330,Pajęczno,PL,Europe,51.1423,18.9593
729,98-330-PL,98-330,Pajęczno,PL,Europe,51.1728,18.9616
730,98-330-PL,98-330,Pajęczno,PL,Europe,51.0966,19.053
731,98-330-PL,98-330,Pajęczno,PL,Europe,51.169,19.048
732,98-330-PL,98-330,Pajęczno,PL,Europe,51.1735,19.003
733,98-330-PL,98-330,Pajęczno,PL,Europe,51.1177,19.0795
734,98-330-PL,98-330,Pajęczno,PL,Europe,51.1072,19.0065
735,98-330-PL,98-330,Pajęczno,PL,Europe,51.179,18.9913
736,98-330-PL,98-330,Pajęczno,PL,Europe,51.1537,18.975
737,98-330-PL,98-330,Pajęczno,PL,Europe,51.124,18.9451
738,LS9 0SW-GB,LS9 0SW,Leeds,GB,Europe,,
739,0-HK,0,Shatin,HK,Asia,,
740,04240-US,04240,LEWISTON,US,Americas,,
741,05065-US,05065,SHARON,US,Americas,,
742,05495-US,05495,WILLISTON,US,Americas,,
743,06804-US,06804,Brookfield,US,Americas,,
744,06811-US,06811,DANBURY,US,Americas,,
745,07008-US,07008,Carteret,US,Americas,,
746,07071-US,07071,Lyndhurst,US,Americas,,
747,07109-US,07109,Belleville,US,Americas,,
748,07649-US,07649,ORADELL,US,Americas,,
749,07726-US,07726,Manalapan,US,Americas,,
750,07849-US,07849,LAKE HOPATCONG,US,Americas,,
751,08065-US,08065,PALMYRA,US,Americas,,
752,08075-1229-US,08075-1229,Delran,US,Americas,,
753,08609-US,08609,TRENTON,US,Americas,,
754,08816-US,08816,EAST BRUNSWICK,US,Americas,,
755,08855-US,08855,Piscataway,US,Americas,,
756,08861-US,08861,Hopelawn,US,Americas,,
757,1026-NZ,1026,Auckland,NZ,Oceania,-36.8782,174.6902
758,10603-US,10603,White Plains,US,Americas,41.0499,-73.7776
759,10701-US,10701,Yonkers,US,Americas,40.9461,-73.8669
760,10994-US,10994,WEST NYACK,US,Americas,41.0973,-73.9768
761,11103-US,11103,Astoria,US,Americas,40.7627,-73.9149
762,11220-US,11220,BROOKLYN,US,Americas,40.6412,-74.0133
763,11233-US,11233,BROOKLYN,US,Americas,40.6784,-73.9211
764,11356-US,11356,COLLEGE POINT,US,Americas,40.7855,-73.845
765,11378-US,11378,MASPETH,US,Americas,40.7239,-73.8997
766,12308-KH,12308,Phnom Penh,KH,Asia,,
767,12402-US,12402,KINGSTON,US,Americas,41.927,-73.9974
768,13153-US,13153,SKANEATELES FALLS,US,Americas,42.9931,-76.456
769,13502-US,13502,Utica,US,Americas,43.1067,-75.2314
770,13760-US,13760,Endicott,US,Americas,42.1506,-76.0551
771,13902-US,13902,BINGHAMTON,US,Americas,42.1054,-75.8876
772,14048-US,14048,Dunkirk,US,Americas,42.4877,-79.3283
773,14901-US,14901,ELMIRA,US,Americas,42.1008,-76.812
774,14902-US,14902,ELMIRA,US,Americas,42.1473,-76.7509
775,15108-US,15108,Coraopolis,US,Americas,40.5,-80.1996
776,17112-US,17112,HARRISBURG,US,Americas,40.3352,-76.7914
777,17315-US,17315,Dover,US,Americas,40.0062,-76.8555
778,18054-US,18054,GREEN LANE,US,Americas,40.3534,-75.4351
779,18951-US,18951,Quakertown,US,Americas,40.4411,-75.3507
780,18966-US,18966,Southampton,US,Americas,40.1868,-75.0071
781,19020-US,19020,Bensalem,US,Americas,40.1109,-74.9378
782,19047-US,19047,LANGHORNE,US,Americas,40.1813,-74.9104
783,19401-US,19401,NORRISTOWN,US,Americas,40.1245,-75.3304
784,19440-US,19440,Hatfield,US,Americas,40.2778,-75.2975
785,19454-US,19454,North Wales,US,Americas,40.2166,-75.2565
786,19709-US,19709,Middletown,US,Americas,39.4815,-75.6832
787,20020-US,20020,Washington,US,Americas,38.86,-76.9742
788,20109-US,20109,Manassas,US,Americas,38.793,-77.5266
789,20151-US,20151,Chantilly,US,Americas,38.8867,-77.4457
790,20705-US,20705,BELTSVILLE,US,Americas,39.0455,-76.9242
791,20781-US,20781,Hyattsville,US,Americas,38.9506,-76.9347
792,20855-US,20855,Rockville,US,Americas,39.1345,-77.1477
793,21046-US,21046,Columbia,US,Americas,39.1702,-76.8538
794,21226-US,21226,Baltimore,US,Americas,39.2109,-76.5597
795,21227-US,21227,BALTIMORE,US,Americas,39.2309,-76.6969
796,21229-US,21229,BALTIMORE,US,Americas,39.2856,-76.6899
